OBJECT_NAME,OBJECT_ID,EPOCH,MEAN_MOTION,ECCENTRICITY,INCLINATION,RA_OF_ASC_NODE,ARG_OF_PERICENTER,MEAN_ANOMALY,EPHEMERIS_TYPE,CLASSIFICATION_TYPE,NORAD_CAT_ID,ELEMENT_SET_NO,REV_AT_EPOCH,BSTAR,MEAN_MOTION_DOT,MEAN_MOTION_DDOT
TRITON-1,2013-066M,2026-06-19T14:12:02.016000,14.81714065,.00885659,97.8246,80.3441,225.9441,133.4455,0,U,39427,999,67444,.21970659E-3,.1794E-4,0
GOMX-1,2013-066Q,2026-06-19T12:01:37.688160,14.69467011,.01301079,97.6476,10.8173,70.2331,291.2853,0,U,39430,999,67025,.21149521E-3,.1376E-4,0
CUBEBUG-2 (LO-74),2013-066AA,2026-06-19T14:36:26.442432,14.93780108,.00582323,97.8909,119.5969,21.2784,339.0838,0,U,39440,999,67735,.38372862E-3,.4144E-4,0
NEE-02 KRYSAOR,2013-066AB,2026-06-19T11:56:37.835232,14.86626623,.00675751,97.8893,109.6957,62.8163,297.9919,0,U,39441,999,67654,.22767248E-3,.2047E-4,0
FUNCUBE-1 (AO-73),2013-066AE,2026-06-19T09:02:23.265024,15.09511616,.00358347,97.8280,141.8681,193.1795,166.8500,0,U,39444,999,67999,.3092781E-3,.4964E-4,0
UWE-3,2013-066AG,2026-06-19T11:43:01.358688,14.97040725,.00472593,97.8700,126.5771,313.4566,46.2728,0,U,39446,999,67792,.33187102E-3,.3847E-4,0
SMDC ONE 2.4,2013-072H,2026-06-19T09:00:13.749696,15.18214867,.01456529,120.4941,0.5312,21.3481,339.3592,0,U,39469,999,11816,.31124137E-3,.8066E-4,0
COSMOS 2488 (RODNIK-S 7),2013-076A,2026-06-19T14:43:42.817728,12.42905411,.00208773,82.4828,167.1833,90.3614,269.9858,0,U,39483,999,56619,-.81458373E-3,-.103E-5,0
COSMOS 2489 (RODNIK-S 8),2013-076B,2026-06-19T14:08:04.586208,12.42879354,.00226993,82.4864,168.5782,90.3271,270.0409,0,U,39484,999,56624,-.52864503E-3,-.63E-6,0
COSMOS 2490 (RODNIK-S 9),2013-076C,2026-06-19T15:23:31.168608,12.42878266,.00227852,82.4812,166.6120,105.0061,255.3543,0,U,39485,999,56618,-.74723849E-4,0,0
KAZEOSAT 1,2014-024A,2026-06-19T14:08:02.986080,14.42081860,.00013253,98.3203,242.9769,76.0794,284.0543,0,U,39731,999,63890,.12955907E-3,.383E-5,0
COSMOS 2496 (RODNIK-S 10),2014-028A,2026-06-19T14:22:21.007200,12.42878316,.00213609,82.4459,107.2213,73.9055,286.4374,0,U,39761,999,54781,-.41017373E-3,-.47E-6,0
COSMOS 2497 (RODNIK-S 11),2014-028B,2026-06-19T13:46:42.636576,12.42894314,.002191,82.4507,108.9274,69.1827,291.1596,0,U,39762,999,54781,.32983779E-3,.56E-6,0
COSMOS 2498 (RODNIK-S 12),2014-028C,2026-06-19T13:14:13.127712,12.42980304,.00226224,82.4467,107.4277,68.9232,291.4264,0,U,39763,999,54784,.31933083E-3,.54E-6,0
HODOYOSHI-4,2014-033B,2026-06-19T14:08:26.067840,14.88130526,.00223671,97.5448,355.2947,299.8180,60.0814,0,U,40011,999,64916,.87656973E-4,.758E-5,0
UNISAT-6,2014-033C,2026-06-19T08:26:54.773376,14.88254745,.00461593,97.7885,323.0255,62.3770,298.2123,0,U,40012,999,64648,.23171108E-3,.2126E-4,0
DEIMOS-2,2014-033D,2026-06-19T14:16:24.672000,14.93728878,.00013455,97.5817,44.9981,56.2471,303.8877,0,U,40013,999,63808,.10090134E-3,.1014E-4,0
BUGSAT-1 (TITA),2014-033E,2026-06-19T14:39:58.892256,15.15605712,.00282881,98.0424,263.3016,170.3058,189.8725,0,U,40014,999,65620,.21401342E-3,.4028E-4,0
SAUDISAT 4,2014-033G,2026-06-19T08:24:54.534816,14.79547180,.00460872,97.7586,316.4104,67.1647,293.4423,0,U,40016,999,64639,.72734218E-4,.502E-5,0
APRIZESAT 9,2014-033J,2026-06-19T07:28:51.586752,14.74217021,.00658577,97.9064,303.4584,192.3075,167.6528,0,U,40018,999,64387,.8843345E-4,.552E-5,0
BRITE-CA1 (TORONTO),2014-033L,2026-06-19T14:52:19.925184,14.72679560,.00772127,97.9743,299.5027,269.0848,90.1513,0,U,40020,999,64257,.91013456E-4,.553E-5,0
