TRITON-1                
1 39427U 13066M   26170.59169000  .00001794  00000+0  21971-3 0  9990
2 39427  97.8246  80.3441 0088565 225.9441 133.4455 14.81714065674449
GOMX-1                  
1 39430U 13066Q   26170.50113065  .00001376  00000+0  21150-3 0  9990
2 39430  97.6476  10.8173 0130107  70.2331 291.2853 14.69467011670257
CUBEBUG-2 (LO-74)       
1 39440U 13066AA  26170.60863938  .00004144  00000+0  38373-3 0  9994
2 39440  97.8909 119.5969 0058232  21.2784 339.0838 14.93780108677351
NEE-02 KRYSAOR          
1 39441U 13066AB  26170.49766013  .00002047  00000+0  22767-3 0  9998
2 39441  97.8893 109.6957 0067575  62.8163 297.9919 14.86626623676548
FUNCUBE-1 (AO-73)       
1 39444U 13066AE  26170.37665816  .00004964  00000+0  30928-3 0  9995
2 39444  97.8280 141.8681 0035834 193.1795 166.8500 15.09511616679998
UWE-3                   
1 39446U 13066AG  26170.48821017  .00003847  00000+0  33187-3 0  9995
2 39446  97.8700 126.5771 0047259 313.4566  46.2728 14.97040725677922
SMDC ONE 2.4            
1 39469U 13072H   26170.37515914  .00008066  00000+0  31124-3 0  9998
2 39469 120.4941   0.5312 0145652  21.3481 339.3592 15.18214867118161
COSMOS 2488 (RODNIK-S 7)
1 39483U 13076A   26170.61369002 -.00000103  00000+0 -81458-3 0  9991
2 39483  82.4828 167.1833 0020877  90.3614 269.9858 12.42905411566190
COSMOS 2489 (RODNIK-S 8)
1 39484U 13076B   26170.58894197 -.00000063  00000+0 -52865-3 0  9991
2 39484  82.4864 168.5782 0022699  90.3271 270.0409 12.42879354566249
COSMOS 2490 (RODNIK-S 9)
1 39485U 13076C   26170.64133297  .00000000  00000+0 -74724-4 0  9995
2 39485  82.4812 166.6120 0022785 105.0061 255.3543 12.42878266566184
KAZEOSAT 1              
1 39731U 14024A   26170.58892345  .00000383  00000+0  12956-3 0  9993
2 39731  98.3203 242.9769 0001325  76.0794 284.0543 14.42081860638909
COSMOS 2496 (RODNIK-S *)
1 39761U 14028A   26170.59885425 -.00000047  00000+0 -41017-3 0  9991
2 39761  82.4459 107.2213 0021360  73.9055 286.4374 12.42878316547818
COSMOS 2497 (RODNIK-S *)
1 39762U 14028B   26170.57410459  .00000056  00000+0  32984-3 0  9992
2 39762  82.4507 108.9274 0021910  69.1827 291.1596 12.42894314547818
COSMOS 2498 (RODNIK-S *)
1 39763U 14028C   26170.55154083  .00000054  00000+0  31933-3 0  9990
2 39763  82.4467 107.4277 0022622  68.9232 291.4264 12.42980304547842
HODOYOSHI-4             
1 40011U 14033B   26170.58919060  .00000758  00000+0  87657-4 0  9997
2 40011  97.5448 355.2947 0022367 299.8180  60.0814 14.88130526649160
UNISAT-6                
1 40012U 14033C   26170.35202284  .00002126  00000+0  23171-3 0  9997
2 40012  97.7885 323.0255 0046159  62.3770 298.2123 14.88254745646486
DEIMOS-2                
1 40013U 14033D   26170.59473000  .00001014  00000+0  10090-3 0  9991
2 40013  97.5817  44.9981 0001345  56.2471 303.8877 14.93728878638088
BUGSAT-1 (TITA)         
1 40014U 14033E   26170.61109829  .00004028  00000+0  21401-3 0  9996
2 40014  98.0424 263.3016 0028288 170.3058 189.8725 15.15605712656203
SAUDISAT 4              
1 40016U 14033G   26170.35063119  .00000502  00000+0  72734-4 0  9999
2 40016  97.7586 316.4104 0046087  67.1647 293.4423 14.79547180646391
APRIZESAT 9             
1 40018U 14033J   26170.31170818  .00000552  00000+0  88433-4 0  9990
2 40018  97.9064 303.4584 0065857 192.3075 167.6528 14.74217021643877
BRITE-CA1 (TORONTO)     
1 40020U 14033L   26170.61967506  .00000553  00000+0  91013-4 0  9993
2 40020  97.9743 299.5027 0077212 269.0848  90.1513 14.72679560642577
